[{"OBJECT_NAME":"ONEWEB-0033","OBJECT_ID":"2020-008M","EPOCH":"2025-09-26T22:11:50.877888","MEAN_MOTION":13.10375278,"ECCENTRICITY":0.00016015,"INCLINATION":87.8744,"RA_OF_ASC_NODE":88.7813,"ARG_OF_PERICENTER":94.0903,"MEAN_ANOMALY":266.0408,"EPHEMERIS_TYPE":0,"CLASSIFICATION_TYPE":"U","NORAD_CAT_ID":45142,"ELEMENT_SET_NO":999,"REV_AT_EPOCH":27373,"BSTAR":-0.0010419783,"MEAN_MOTION_DOT":-3.51e-6,"MEAN_MOTION_DDOT":0},{"OBJECT_NAME":"ONEWEB-0035","OBJECT_ID":"2020-008N","EPOCH":"2025-09-27T13:35:43.714752","MEAN_MOTION":13.10372313,"ECCENTRICITY":0.00015974,"INCLINATION":87.8739,"RA_OF_ASC_NODE":88.6545,"ARG_OF_PERICENTER":93.0371,"MEAN_ANOMALY":267.0939,"EPHEMERIS_TYPE":0,"CLASSIFICATION_TYPE":"U","NORAD_CAT_ID":45143,"ELEMENT_SET_NO":999,"REV_AT_EPOCH":27354,"BSTAR":0.0020511604,"MEAN_MOTION_DOT":7.29e-6,"MEAN_MOTION_DDOT":0},{"OBJECT_NAME":"ONEWEB-0036","OBJECT_ID":"2020-008P","EPOCH":"2025-09-28T00:21:06.679296","MEAN_MOTION":13.10375527,"ECCENTRICITY":0.00017143,"INCLINATION":87.8757,"RA_OF_ASC_NODE":88.5152,"ARG_OF_PERICENTER":73.4191,"MEAN_ANOMALY":286.7125,"EPHEMERIS_TYPE":0,"CLASSIFICATION_TYPE":"U","NORAD_CAT_ID":45144,"ELEMENT_SET_NO":999,"REV_AT_EPOCH":27403,"BSTAR":0.0013823525,"MEAN_MOTION_DOT":4.95e-6,"MEAN_MOTION_DDOT":0},{"OBJECT_NAME":"ONEWEB-0038","OBJECT_ID":"2020-008Q","EPOCH":"2025-09-28T00:18:57.767904","MEAN_MOTION":13.11417134,"ECCENTRICITY":3.836e-5,"INCLINATION":87.8794,"RA_OF_ASC_NODE":73.2814,"ARG_OF_PERICENTER":202.8967,"MEAN_ANOMALY":157.2144,"EPHEMERIS_TYPE":0,"CLASSIFICATION_TYPE":"U","NORAD_CAT_ID":45145,"ELEMENT_SET_NO":999,"REV_AT_EPOCH":27596,"BSTAR":-0.0013299196,"MEAN_MOTION_DOT":-4.59e-6,"MEAN_MOTION_DDOT":0},{"OBJECT_NAME":"ONEWEB-0039","OBJECT_ID":"2020-008R","EPOCH":"2025-09-25T11:27:24.185664","MEAN_MOTION":13.10370563,"ECCENTRICITY":0.00017954,"INCLINATION":87.8768,"RA_OF_ASC_NODE":89.041,"ARG_OF_PERICENTER":87.1473,"MEAN_ANOMALY":272.986,"EPHEMERIS_TYPE":0,"CLASSIFICATION_TYPE":"U","NORAD_CAT_ID":45146,"ELEMENT_SET_NO":999,"REV_AT_EPOCH":27349,"BSTAR":0.00040359409,"MEAN_MOTION_DOT":1.54e-6,"MEAN_MOTION_DDOT":0},{"OBJECT_NAME":"ONEWEB-0040","OBJECT_ID":"2020-008S","EPOCH":"2025-09-27T23:46:24.770208","MEAN_MOTION":13.10374295,"ECCENTRICITY":0.00015618,"INCLINATION":87.8744,"RA_OF_ASC_NODE":88.5669,"ARG_OF_PERICENTER":87.3571,"MEAN_ANOMALY":272.7735,"EPHEMERIS_TYPE":0,"CLASSIFICATION_TYPE":"U","NORAD_CAT_ID":45147,"ELEMENT_SET_NO":999,"REV_AT_EPOCH":27352,"BSTAR":-0.0016212465,"MEAN_MOTION_DOT":-5.53e-6,"MEAN_MOTION_DDOT":0},{"OBJECT_NAME":"ONEWEB-0043","OBJECT_ID":"2020-008U","EPOCH":"2025-09-26T22:09:27.454752","MEAN_MOTION":13.10375299,"ECCENTRICITY":0.00017915,"INCLINATION":87.8742,"RA_OF_ASC_NODE":88.7624,"ARG_OF_PERICENTER":73.8319,"MEAN_ANOMALY":286.3006,"EPHEMERIS_TYPE":0,"CLASSIFICATION_TYPE":"U","NORAD_CAT_ID":45149,"ELEMENT_SET_NO":999,"REV_AT_EPOCH":27370,"BSTAR":-0.0010822158,"MEAN_MOTION_DOT":-3.65e-6,"MEAN_MOTION_DDOT":0},{"OBJECT_NAME":"ONEWEB-0044","OBJECT_ID":"2020-008V","EPOCH":"2025-09-28T00:29:28.970016","MEAN_MOTION":13.10373732,"ECCENTRICITY":0.00016724,"INCLINATION":87.8741,"RA_OF_ASC_NODE":88.5341,"ARG_OF_PERICENTER":76.3044,"MEAN_ANOMALY":283.8269,"EPHEMERIS_TYPE":0,"CLASSIFICATION_TYPE":"U","NORAD_CAT_ID":45150,"ELEMENT_SET_NO":999,"REV_AT_EPOCH":27414,"BSTAR":0.0016912888,"MEAN_MOTION_DOT":6.03e-6,"MEAN_MOTION_DDOT":0},{"OBJECT_NAME":"ONEWEB-0045","OBJECT_ID":"2020-008W","EPOCH":"2025-09-27T22:21:34.800192","MEAN_MOTION":13.114182,"ECCENTRICITY":0.00014451,"INCLINATION":87.8807,"RA_OF_ASC_NODE":73.2731,"ARG_OF_PERICENTER":90.7469,"MEAN_ANOMALY":269.3825,"EPHEMERIS_TYPE":0,"CLASSIFICATION_TYPE":"U","NORAD_CAT_ID":45151,"ELEMENT_SET_NO":999,"REV_AT_EPOCH":27603,"BSTAR":-0.00093031079,"MEAN_MOTION_DOT":-3.17e-6,"MEAN_MOTION_DDOT":0},{"OBJECT_NAME":"ONEWEB-0047","OBJECT_ID":"2020-008X","EPOCH":"2025-09-28T00:19:54.754752","MEAN_MOTION":13.10377315,"ECCENTRICITY":0.00015492,"INCLINATION":87.8744,"RA_OF_ASC_NODE":88.5457,"ARG_OF_PERICENTER":83.2128,"MEAN_ANOMALY":276.9175,"EPHEMERIS_TYPE":0,"CLASSIFICATION_TYPE":"U","NORAD_CAT_ID":45152,"ELEMENT_SET_NO":999,"REV_AT_EPOCH":27386,"BSTAR":0.0013459987,"MEAN_MOTION_DOT":4.83e-6,"MEAN_MOTION_DDOT":0},{"OBJECT_NAME":"ONEWEB-0048","OBJECT_ID":"2020-008Y","EPOCH":"2025-09-27T22:22:46.913952","MEAN_MOTION":13.10375664,"ECCENTRICITY":0.00016261,"INCLINATION":87.8747,"RA_OF_ASC_NODE":88.5879,"ARG_OF_PERICENTER":86.2582,"MEAN_ANOMALY":273.8732,"EPHEMERIS_TYPE":0,"CLASSIFICATION_TYPE":"U","NORAD_CAT_ID":45153,"ELEMENT_SET_NO":999,"REV_AT_EPOCH":27346,"BSTAR":0.00066625634,"MEAN_MOTION_DOT":2.45e-6,"MEAN_MOTION_DDOT":0},{"OBJECT_NAME":"ONEWEB-0049","OBJECT_ID":"2020-008Z","EPOCH":"2025-09-28T00:16:19.634304","MEAN_MOTION":13.10375528,"ECCENTRICITY":0.00020479,"INCLINATION":87.8744,"RA_OF_ASC_NODE":88.5634,"ARG_OF_PERICENTER":76.4581,"MEAN_ANOMALY":283.6774,"EPHEMERIS_TYPE":0,"CLASSIFICATION_TYPE":"U","NORAD_CAT_ID":45154,"ELEMENT_SET_NO":999,"REV_AT_EPOCH":27369,"BSTAR":0.0010091961,"MEAN_MOTION_DOT":3.65e-6,"MEAN_MOTION_DDOT":0},{"OBJECT_NAME":"ONEWEB-0051","OBJECT_ID":"2020-008AA","EPOCH":"2025-09-27T22:19:07.012128","MEAN_MOTION":13.11413175,"ECCENTRICITY":0.0001619,"INCLINATION":87.8786,"RA_OF_ASC_NODE":73.3099,"ARG_OF_PERICENTER":93.7053,"MEAN_ANOMALY":266.426,"EPHEMERIS_TYPE":0,"CLASSIFICATION_TYPE":"U","NORAD_CAT_ID":45155,"ELEMENT_SET_NO":999,"REV_AT_EPOCH":27671,"BSTAR":-0.00075835995,"MEAN_MOTION_DOT":-2.56e-6,"MEAN_MOTION_DDOT":0},{"OBJECT_NAME":"ONEWEB-0052","OBJECT_ID":"2020-008AB","EPOCH":"2025-09-27T22:19:11.825472","MEAN_MOTION":13.10376883,"ECCENTRICITY":0.00021104,"INCLINATION":87.8759,"RA_OF_ASC_NODE":88.5322,"ARG_OF_PERICENTER":77.344,"MEAN_ANOMALY":282.7923,"EPHEMERIS_TYPE":0,"CLASSIFICATION_TYPE":"U","NORAD_CAT_ID":45156,"ELEMENT_SET_NO":999,"REV_AT_EPOCH":27359,"BSTAR":0.00032633685,"MEAN_MOTION_DOT":1.27e-6,"MEAN_MOTION_DDOT":0},{"OBJECT_NAME":"ONEWEB-0053","OBJECT_ID":"2020-008AC","EPOCH":"2025-09-28T01:33:59.294304","MEAN_MOTION":13.10372889,"ECCENTRICITY":0.00013547,"INCLINATION":87.8741,"RA_OF_ASC_NODE":88.5572,"ARG_OF_PERICENTER":81.0489,"MEAN_ANOMALY":279.0792,"EPHEMERIS_TYPE":0,"CLASSIFICATION_TYPE":"U","NORAD_CAT_ID":45157,"ELEMENT_SET_NO":999,"REV_AT_EPOCH":27358,"BSTAR":-0.0019358559,"MEAN_MOTION_DOT":-6.63e-6,"MEAN_MOTION_DDOT":0},{"OBJECT_NAME":"ONEWEB-0054","OBJECT_ID":"2020-008AD","EPOCH":"2025-09-28T00:34:15.868992","MEAN_MOTION":13.10372778,"ECCENTRICITY":0.00016967,"INCLINATION":87.874,"RA_OF_ASC_NODE":88.5386,"ARG_OF_PERICENTER":87.6816,"MEAN_ANOMALY":272.4506,"EPHEMERIS_TYPE":0,"CLASSIFICATION_TYPE":"U","NORAD_CAT_ID":45158,"ELEMENT_SET_NO":999,"REV_AT_EPOCH":27369,"BSTAR":0.0018231742,"MEAN_MOTION_DOT":6.49e-6,"MEAN_MOTION_DDOT":0},{"OBJECT_NAME":"ONEWEB-0056","OBJECT_ID":"2020-008AE","EPOCH":"2025-09-27T22:16:48.092160","MEAN_MOTION":13.10376895,"ECCENTRICITY":0.00016534,"INCLINATION":87.8745,"RA_OF_ASC_NODE":88.5554,"ARG_OF_PERICENTER":86.7779,"MEAN_ANOMALY":273.3537,"EPHEMERIS_TYPE":0,"CLASSIFICATION_TYPE":"U","NORAD_CAT_ID":45159,"ELEMENT_SET_NO":999,"REV_AT_EPOCH":27383,"BSTAR":3.040085e-5,"MEAN_MOTION_DOT":2.3e-7,"MEAN_MOTION_DDOT":0}]
