ONEWEB-0033             
1 45142U 20008M   25269.92489442 -.00000351  00000+0 -10420-2 0  9991
2 45142  87.8744  88.7813 0001601  94.0903 266.0408 13.10375278273739
ONEWEB-0035             
1 45143U 20008N   25270.56647818  .00000729  00000+0  20512-2 0  9997
2 45143  87.8739  88.6545 0001597  93.0371 267.0939 13.10372313273543
ONEWEB-0036             
1 45144U 20008P   25271.01466064  .00000495  00000+0  13824-2 0  9999
2 45144  87.8757  88.5152 0001714  73.4191 286.7125 13.10375527274030
ONEWEB-0038             
1 45145U 20008Q   25271.01316861 -.00000459  00000+0 -13299-2 0  9997
2 45145  87.8794  73.2814 0000383 202.8967 157.2144 13.11417134275966
ONEWEB-0039             
1 45146U 20008R   25268.47736326  .00000154  00000+0  40359-3 0  9994
2 45146  87.8768  89.0410 0001795  87.1473 272.9860 13.10370563273498
ONEWEB-0040             
1 45147U 20008S   25270.99056447 -.00000553  00000+0 -16212-2 0  9999
2 45147  87.8744  88.5669 0001561  87.3571 272.7735 13.10374295273524
ONEWEB-0043             
1 45149U 20008U   25269.92323443 -.00000365  00000+0 -10822-2 0  9997
2 45149  87.8742  88.7624 0001791  73.8319 286.3006 13.10375299273709
ONEWEB-0044             
1 45150U 20008V   25271.02047419  .00000603  00000+0  16913-2 0  9999
2 45150  87.8741  88.5341 0001672  76.3044 283.8269 13.10373732274147
ONEWEB-0045             
1 45151U 20008W   25270.93165278 -.00000317  00000+0 -93031-3 0  9994
2 45151  87.8807  73.2731 0001445  90.7469 269.3825 13.11418200276032
ONEWEB-0047             
1 45152U 20008X   25271.01382818  .00000483  00000+0  13460-2 0  9995
2 45152  87.8744  88.5457 0001549  83.2128 276.9175 13.10377315273861
ONEWEB-0048             
1 45153U 20008Y   25270.93248743  .00000245  00000+0  66626-3 0  9993
2 45153  87.8747  88.5879 0001626  86.2582 273.8732 13.10375664273462
ONEWEB-0049             
1 45154U 20008Z   25271.01133836  .00000365  00000+0  10092-2 0  9998
2 45154  87.8744  88.5634 0002047  76.4581 283.6774 13.10375528273696
ONEWEB-0051             
1 45155U 20008AA  25270.92994227 -.00000256  00000+0 -75836-3 0  9996
2 45155  87.8786  73.3099 0001619  93.7053 266.4260 13.11413175276717
ONEWEB-0052             
1 45156U 20008AB  25270.92999798  .00000127  00000+0  32634-3 0  9999
2 45156  87.8759  88.5322 0002110  77.3440 282.7923 13.10376883273593
ONEWEB-0053             
1 45157U 20008AC  25271.06526961 -.00000663  00000+0 -19359-2 0  9999
2 45157  87.8741  88.5572 0001354  81.0489 279.0792 13.10372889273580
ONEWEB-0054             
1 45158U 20008AD  25271.02379478  .00000649  00000+0  18232-2 0  9996
2 45158  87.8740  88.5386 0001696  87.6816 272.4506 13.10372778273697
ONEWEB-0056             
1 45159U 20008AE  25270.92833440  .00000023  00000+0  30401-4 0  9999
2 45159  87.8745  88.5554 0001653  86.7779 273.3537 13.10376895273835
